sat04753
1 04753U 70025DB  20046.82430442  .00000299  00000-0  33962-3 0  9998
2 04753 100.0043   8.1975 0005346 185.2488 204.6801 13.79305646483441
